[
  {
    "COMMENT": "GENERATED VIA SPACETRACK.ORG API",
    "ORIGINATOR": "18 SPCS",
    "NORAD_CAT_ID": "43437",
    "OBJECT_NAME": "SENTINEL 3B",
    "OBJECT_TYPE": "PAYLOAD",
    "CLASSIFICATION_TYPE": "U",
    "INTLDES": "18039A",
    "EPOCH": "2023-05-18 19:33:56",
    "EPOCH_MICROSECONDS": "279808",
    "MEAN_MOTION": "14.26732379",
    "ECCENTRICITY": "0.0001003",
    "INCLINATION": "98.6286",
    "RA_OF_ASC_NODE": "206.3349",
    "ARG_OF_PERICENTER": "83.3839",
    "MEAN_ANOMALY": "276.7455",
    "EPHEMERIS_TYPE": "0",
    "ELEMENT_SET_NO": "999",
    "REV_AT_EPOCH": "26365",
    "BSTAR": "0.000073071",
    "MEAN_MOTION_DOT": "0.00000133",
    "MEAN_MOTION_DDOT": "0",
    "FILE": "3911388",
    "TLE_LINE0": "0 SENTINEL 3B",
    "TLE_LINE1": "1 43437U 18039A   23138.81523472  .00000133  00000-0  73071-4 0  9990",
    "TLE_LINE2": "2 43437  98.6286 206.3349 0001003  83.3839 276.7455 14.26732379263659",
    "OBJECT_ID": "2018-039A",
    "OBJECT_NUMBER": "43437",
    "SEMIMAJOR_AXIS": "7180.811",
    "PERIOD": "100.930",
    "APOGEE": "803.396",
    "PERIGEE": "801.956",
    "DECAYED": "0"
  },
  {
    "COMMENT": "GENERATED VIA SPACETRACK.ORG API",
    "ORIGINATOR": "18 SPCS",
    "NORAD_CAT_ID": "43437",
    "OBJECT_NAME": "SENTINEL 3B",
    "OBJECT_TYPE": "PAYLOAD",
    "CLASSIFICATION_TYPE": "U",
    "INTLDES": "18039A",
    "EPOCH": "2023-05-19 02:17:53",
    "EPOCH_MICROSECONDS": "232000",
    "MEAN_MOTION": "14.26732471",
    "ECCENTRICITY": "0.0000983",
    "INCLINATION": "98.6286",
    "RA_OF_ASC_NODE": "206.6116",
    "ARG_OF_PERICENTER": "84.193",
    "MEAN_ANOMALY": "275.9362",
    "EPHEMERIS_TYPE": "0",
    "ELEMENT_SET_NO": "999",
    "REV_AT_EPOCH": "26369",
    "BSTAR": "0.000071164",
    "MEAN_MOTION_DOT": "0.00000129",
    "MEAN_MOTION_DDOT": "0",
    "FILE": "3911464",
    "TLE_LINE0": "0 SENTINEL 3B",
    "TLE_LINE1": "1 43437U 18039A   23139.09575500  .00000129  00000-0  71164-4 0  9996",
    "TLE_LINE2": "2 43437  98.6286 206.6116 0000983  84.1930 275.9362 14.26732471263696",
    "OBJECT_ID": "2018-039A",
    "OBJECT_NUMBER": "43437",
    "SEMIMAJOR_AXIS": "7180.811",
    "PERIOD": "100.930",
    "APOGEE": "803.382",
    "PERIGEE": "801.970",
    "DECAYED": "0"
  },
  {
    "COMMENT": "GENERATED VIA SPACETRACK.ORG API",
    "ORIGINATOR": "18 SPCS",
    "NORAD_CAT_ID": "43437",
    "OBJECT_NAME": "SENTINEL 3B",
    "OBJECT_TYPE": "PAYLOAD",
    "CLASSIFICATION_TYPE": "U",
    "INTLDES": "18039A",
    "EPOCH": "2023-05-19 03:58:52",
    "EPOCH_MICROSECONDS": "471776",
    "MEAN_MOTION": "14.26732537",
    "ECCENTRICITY": "0.0000982",
    "INCLINATION": "98.6286",
    "RA_OF_ASC_NODE": "206.6808",
    "ARG_OF_PERICENTER": "84.2202",
    "MEAN_ANOMALY": "275.909",
    "EPHEMERIS_TYPE": "0",
    "ELEMENT_SET_NO": "999",
    "REV_AT_EPOCH": "26370",
    "BSTAR": "0.000073964",
    "MEAN_MOTION_DOT": "0.00000135",
    "MEAN_MOTION_DDOT": "0",
    "FILE": "3912278",
    "TLE_LINE0": "0 SENTINEL 3B",
    "TLE_LINE1": "1 43437U 18039A   23139.16588509  .00000135  00000-0  73964-4 0  9994",
    "TLE_LINE2": "2 43437  98.6286 206.6808 0000982  84.2202 275.9090 14.26732537263709",
    "OBJECT_ID": "2018-039A",
    "OBJECT_NUMBER": "43437",
    "SEMIMAJOR_AXIS": "7180.810",
    "PERIOD": "100.930",
    "APOGEE": "803.381",
    "PERIGEE": "801.970",
    "DECAYED": "0"
  },
  {
    "COMMENT": "GENERATED VIA SPACETRACK.ORG API",
    "ORIGINATOR": "18 SPCS",
    "NORAD_CAT_ID": "43437",
    "OBJECT_NAME": "SENTINEL 3B",
    "OBJECT_TYPE": "PAYLOAD",
    "CLASSIFICATION_TYPE": "U",
    "INTLDES": "18039A",
    "EPOCH": "2023-05-20 03:32:41",
    "EPOCH_MICROSECONDS": "790624",
    "MEAN_MOTION": "14.26733107",
    "ECCENTRICITY": "0.0000955",
    "INCLINATION": "98.6286",
    "RA_OF_ASC_NODE": "207.649",
    "ARG_OF_PERICENTER": "85.2823",
    "MEAN_ANOMALY": "274.8467",
    "EPHEMERIS_TYPE": "0",
    "ELEMENT_SET_NO": "999",
    "REV_AT_EPOCH": "26384",
    "BSTAR": "0.00008571",
    "MEAN_MOTION_DOT": "0.00000164",
    "MEAN_MOTION_DDOT": "0",
    "FILE": "3912654",
    "TLE_LINE0": "0 SENTINEL 3B",
    "TLE_LINE1": "1 43437U 18039A   23140.14770591  .00000164  00000-0  85710-4 0  9992",
    "TLE_LINE2": "2 43437  98.6286 207.6490 0000955  85.2823 274.8467 14.26733107263842",
    "OBJECT_ID": "2018-039A",
    "OBJECT_NUMBER": "43437",
    "SEMIMAJOR_AXIS": "7180.809",
    "PERIOD": "100.930",
    "APOGEE": "803.359",
    "PERIGEE": "801.988",
    "DECAYED": "0"
  },
  {
    "COMMENT": "GENERATED VIA SPACETRACK.ORG API",
    "ORIGINATOR": "18 SPCS",
    "NORAD_CAT_ID": "43437",
    "OBJECT_NAME": "SENTINEL 3B",
    "OBJECT_TYPE": "PAYLOAD",
    "CLASSIFICATION_TYPE": "U",
    "INTLDES": "18039A",
    "EPOCH": "2023-05-20 18:41:34",
    "EPOCH_MICROSECONDS": "896768",
    "MEAN_MOTION": "14.26733551",
    "ECCENTRICITY": "0.0000957",
    "INCLINATION": "98.6286",
    "RA_OF_ASC_NODE": "208.2714",
    "ARG_OF_PERICENTER": "86.0581",
    "MEAN_ANOMALY": "274.0709",
    "EPHEMERIS_TYPE": "0",
    "ELEMENT_SET_NO": "999",
    "REV_AT_EPOCH": "26393",
    "BSTAR": "0.000095193",
    "MEAN_MOTION_DOT": "0.00000187",
    "MEAN_MOTION_DDOT": "0",
    "FILE": "3913175",
    "TLE_LINE0": "0 SENTINEL 3B",
    "TLE_LINE1": "1 43437U 18039A   23140.77887612  .00000187  00000-0  95193-4 0  9995",
    "TLE_LINE2": "2 43437  98.6286 208.2714 0000957  86.0581 274.0709 14.26733551263934",
    "OBJECT_ID": "2018-039A",
    "OBJECT_NUMBER": "43437",
    "SEMIMAJOR_AXIS": "7180.807",
    "PERIOD": "100.930",
    "APOGEE": "803.359",
    "PERIGEE": "801.985",
    "DECAYED": "0"
  },
  {
    "COMMENT": "GENERATED VIA SPACETRACK.ORG API",
    "ORIGINATOR": "18 SPCS",
    "NORAD_CAT_ID": "43437",
    "OBJECT_NAME": "SENTINEL 3B",
    "OBJECT_TYPE": "PAYLOAD",
    "CLASSIFICATION_TYPE": "U",
    "INTLDES": "18039A",
    "EPOCH": "2023-05-21 04:47:30",
    "EPOCH_MICROSECONDS": "306048",
    "MEAN_MOTION": "14.26733784",
    "ECCENTRICITY": "0.0000958",
    "INCLINATION": "98.6286",
    "RA_OF_ASC_NODE": "208.6864",
    "ARG_OF_PERICENTER": "86.1074",
    "MEAN_ANOMALY": "274.0216",
    "EPHEMERIS_TYPE": "0",
    "ELEMENT_SET_NO": "999",
    "REV_AT_EPOCH": "26399",
    "BSTAR": "0.000099638",
    "MEAN_MOTION_DOT": "0.00000197",
    "MEAN_MOTION_DDOT": "0",
    "FILE": "3913511",
    "TLE_LINE0": "0 SENTINEL 3B",
    "TLE_LINE1": "1 43437U 18039A   23141.19965632  .00000197  00000-0  99638-4 0  9990",
    "TLE_LINE2": "2 43437  98.6286 208.6864 0000958  86.1074 274.0216 14.26733784263990",
    "OBJECT_ID": "2018-039A",
    "OBJECT_NUMBER": "43437",
    "SEMIMAJOR_AXIS": "7180.806",
    "PERIOD": "100.930",
    "APOGEE": "803.359",
    "PERIGEE": "801.983",
    "DECAYED": "0"
  },
  {
    "COMMENT": "GENERATED VIA SPACETRACK.ORG API",
    "ORIGINATOR": "18 SPCS",
    "NORAD_CAT_ID": "43437",
    "OBJECT_NAME": "SENTINEL 3B",
    "OBJECT_TYPE": "PAYLOAD",
    "CLASSIFICATION_TYPE": "U",
    "INTLDES": "18039A",
    "EPOCH": "2023-05-21 04:47:30",
    "EPOCH_MICROSECONDS": "306048",
    "MEAN_MOTION": "14.26733784",
    "ECCENTRICITY": "0.0000958",
    "INCLINATION": "98.6286",
    "RA_OF_ASC_NODE": "208.6864",
    "ARG_OF_PERICENTER": "86.1074",
    "MEAN_ANOMALY": "274.0216",
    "EPHEMERIS_TYPE": "0",
    "ELEMENT_SET_NO": "999",
    "REV_AT_EPOCH": "26399",
    "BSTAR": "0.000099638",
    "MEAN_MOTION_DOT": "0.00000197",
    "MEAN_MOTION_DDOT": "0",
    "FILE": "3913738",
    "TLE_LINE0": "0 SENTINEL 3B",
    "TLE_LINE1": "1 43437U 18039A   23141.19965632  .00000197  00000-0  99638-4 0  9990",
    "TLE_LINE2": "2 43437  98.6286 208.6864 0000958  86.1074 274.0216 14.26733784263990",
    "OBJECT_ID": "2018-039A",
    "OBJECT_NUMBER": "43437",
    "SEMIMAJOR_AXIS": "7180.806",
    "PERIOD": "100.930",
    "APOGEE": "803.359",
    "PERIGEE": "801.983",
    "DECAYED": "0"
  },
  {
    "COMMENT": "GENERATED VIA SPACETRACK.ORG API",
    "ORIGINATOR": "18 SPCS",
    "NORAD_CAT_ID": "43437",
    "OBJECT_NAME": "SENTINEL 3B",
    "OBJECT_TYPE": "PAYLOAD",
    "CLASSIFICATION_TYPE": "U",
    "INTLDES": "18039A",
    "EPOCH": "2023-05-21 21:37:22",
    "EPOCH_MICROSECONDS": "639008",
    "MEAN_MOTION": "14.26734089",
    "ECCENTRICITY": "0.0000957",
    "INCLINATION": "98.6286",
    "RA_OF_ASC_NODE": "209.378",
    "ARG_OF_PERICENTER": "86.4794",
    "MEAN_ANOMALY": "273.6495",
    "EPHEMERIS_TYPE": "0",
    "ELEMENT_SET_NO": "999",
    "REV_AT_EPOCH": "26409",
    "BSTAR": "0.00010027",
    "MEAN_MOTION_DOT": "0.00000199",
    "MEAN_MOTION_DDOT": "0",
    "FILE": "3914061",
    "TLE_LINE0": "0 SENTINEL 3B",
    "TLE_LINE1": "1 43437U 18039A   23141.90095647  .00000199  00000-0  10027-3 0  9995",
    "TLE_LINE2": "2 43437  98.6286 209.3780 0000957  86.4794 273.6495 14.26734089264091",
    "OBJECT_ID": "2018-039A",
    "OBJECT_NUMBER": "43437",
    "SEMIMAJOR_AXIS": "7180.805",
    "PERIOD": "100.930",
    "APOGEE": "803.357",
    "PERIGEE": "801.983",
    "DECAYED": "0"
  }
]